ONEWEB-0247             
1 48777U 21045L   24073.46896236  .00000012  00000+0 -16755-5 0  9997
2 48777  87.8966  63.5421 0002025  53.0724 307.0591 13.15547638135849
ONEWEB-0245             
1 48778U 21045M   24073.46420104 -.00000042  00000+0 -14586-3 0  9997
2 48778  87.8959  63.5388 0001604  86.3262 273.8052 13.15546929135813
ONEWEB-0229             
1 48779U 21045N   24073.45945526 -.00000089  00000+0 -26984-3 0  9993
2 48779  87.8963  63.5321 0001961  79.6881 280.4470 13.15547534135848
ONEWEB-0228             
1 48780U 21045P   24073.47450831 -.00000060  00000+0 -19261-3 0  9996
2 48780  87.8958  63.5067 0001938  82.5185 277.6165 13.15547565135769
ONEWEB-0232             
1 48781U 21045Q   24073.46737661 -.00000029  00000+0 -11231-3 0  9999
2 48781  87.8953  63.5339 0001913  81.8970 278.2378 13.15547769136089
ONEWEB-0231             
1 48782U 21045R   24073.44519056  .00000027  00000+0  37876-4 0  9994
2 48782  87.8976  63.5531 0001869  80.2499 279.8843 13.15547467135772
ONEWEB-0234             
1 48783U 21045S   24073.46499724 -.00000063  00000+0 -20162-3 0  9997
2 48783  87.8961  63.5161 0001962 128.3681 231.7626 13.15549764135911
ONEWEB-0238             
1 48784U 21045T   24073.49510937  .00000195  00000+0  48471-3 0  9998
2 48784  87.8962  63.5285 0001908  90.3915 269.7434 13.15548067135810
